STARLINK-32182          
1 60319U 24133U   26068.05834168  .00000255  00000+0  20727-4 0  9992
2 60319  53.1600 299.9979 0001080  85.6382 274.4742 15.30193796 91544
2025-313BD              
1 67299U 25313BD  26068.62968741  .00081010  00000+0  27634-2 0  9995
2 67299  97.3970 145.2850 0007287 333.4514  26.6352 15.30002360 10838
